[{"OBJECT_NAME":"STARLINK-30945","OBJECT_ID":"2024-019X","EPOCH":"2026-03-09T12:20:52.075104","MEAN_MOTION":15.27576786,"ECCENTRICITY":0.00011418,"INCLINATION":42.9976,"RA_OF_ASC_NODE":250.0661,"ARG_OF_PERICENTER":279.3375,"MEAN_ANOMALY":80.7347,"EPHEMERIS_TYPE":0,"CLASSIFICATION_TYPE":"U","NORAD_CAT_ID":58874,"ELEMENT_SET_NO":999,"REV_AT_EPOCH":11905,"BSTAR":1.4061112e-5,"MEAN_MOTION_DOT":1.25e-6,"MEAN_MOTION_DDOT":0},{"OBJECT_NAME":"COSMOS 252 DEB","OBJECT_ID":"1968-097BM","EPOCH":"2026-03-09T19:23:01.251168","MEAN_MOTION":14.84266968,"ECCENTRICITY":0.01906429,"INCLINATION":62.1994,"RA_OF_ASC_NODE":322.7421,"ARG_OF_PERICENTER":219.9576,"MEAN_ANOMALY":138.735,"EPHEMERIS_TYPE":0,"CLASSIFICATION_TYPE":"U","NORAD_CAT_ID":3900,"ELEMENT_SET_NO":999,"REV_AT_EPOCH":87477,"BSTAR":0.00094776544,"MEAN_MOTION_DOT":0.00010849,"MEAN_MOTION_DDOT":0}]
